{
  "type": "FeatureCollection",
  "features": [
    {
      "type": "Feature",
      "properties": {
        "norad_id": 40118,
        "name": "GAOFEN-2",
        "group": "resource",
        "lat": -20.71790723096868,
        "lon": -123.71289829079807,
        "alt_km": 636.1102112425997,
        "timestamp": "2025-12-26T03:50:11.744865+00:00",
        "meta_object_name": "GAOFEN-2",
        "meta_object_id": "2014-049A",
        "meta_epoch": "2025-12-25T20:26:43.931904",
        "meta_mean_motion": 14.8062887,
        "meta_eccentricity": 0.0008707,
        "meta_inclination": 98.0362,
        "meta_ra_of_asc_node": 59.0418,
        "meta_arg_of_pericenter": 76.7762,
        "meta_mean_anomaly": 283.442,
        "meta_ephemeris_type": 0,
        "meta_classification_type": "U",
        "meta_norad_cat_id": 40118,
        "meta_element_set_no": 999,
        "meta_rev_at_epoch": 61358,
        "meta_bstar": 8.09e-05,
        "meta_mean_motion_dot": 5.68e-06,
        "meta_mean_motion_ddot": 0,
        "tle_line1": "1 40118U 14049A   25359.85189736  .00000568  00000+0  80900-4 0  9992",
        "tle_line2": "2 40118  98.0362  59.0418 0008707  76.7762 283.4420 14.80628870613588"
      },
      "geometry": {
        "type": "Point",
        "coordinates": [
          -123.71289829079807,
          -20.71790723096868
        ]
      }
    },
    {
      "type": "Feature",
      "properties": {
        "norad_id": 40143,
        "name": "YAOGAN-21",
        "group": "resource",
        "lat": 80.41602945431057,
        "lon": -5.349736140872258,
        "alt_km": 486.64049422172775,
        "timestamp": "2025-12-26T03:50:11.744876+00:00",
        "meta_object_name": "YAOGAN-21",
        "meta_object_id": "2014-053A",
        "meta_epoch": "2025-12-25T21:10:02.171712",
        "meta_mean_motion": 15.23802148,
        "meta_eccentricity": 0.000847,
        "meta_inclination": 97.1735,
        "meta_ra_of_asc_node": 42.6223,
        "meta_arg_of_pericenter": 358.0469,
        "meta_mean_anomaly": 2.0734,
        "meta_ephemeris_type": 0,
        "meta_classification_type": "U",
        "meta_norad_cat_id": 40143,
        "meta_element_set_no": 999,
        "meta_rev_at_epoch": 62854,
        "meta_bstar": 0.00016163,
        "meta_mean_motion_dot": 3.827e-05,
        "meta_mean_motion_ddot": 0,
        "tle_line1": "1 40143U 14053A   25359.88196958  .00003827  00000+0  16163-3 0  9992",
        "tle_line2": "2 40143  97.1735  42.6223 0008470 358.0469   2.0734 15.23802148628544"
      },
      "geometry": {
        "type": "Point",
        "coordinates": [
          -5.349736140872258,
          80.41602945431057
        ]
      }
    },
    {
      "type": "Feature",
      "properties": {
        "norad_id": 40275,
        "name": "YAOGAN-22",
        "group": "resource",
        "lat": -42.899058669599405,
        "lon": 153.92925571052282,
        "alt_km": 1209.1182055024774,
        "timestamp": "2025-12-26T03:50:11.744886+00:00",
        "meta_object_name": "YAOGAN-22",
        "meta_object_id": "2014-063A",
        "meta_epoch": "2025-12-25T15:16:57.245952",
        "meta_mean_motion": 13.15523272,
        "meta_eccentricity": 0.0006094,
        "meta_inclination": 100.743,
        "meta_ra_of_asc_node": 143.2387,
        "meta_arg_of_pericenter": 217.4039,
        "meta_mean_anomaly": 142.6648,
        "meta_ephemeris_type": 0,
        "meta_classification_type": "U",
        "meta_norad_cat_id": 40275,
        "meta_element_set_no": 999,
        "meta_rev_at_epoch": 53699,
        "meta_bstar": 5.775e-05,
        "meta_mean_motion_dot": -2.5e-07,
        "meta_mean_motion_ddot": 0,
        "tle_line1": "1 40275U 14063A   25359.63677368 -.00000025  00000+0  57750-4 0  9997",
        "tle_line2": "2 40275 100.7430 143.2387 0006094 217.4039 142.6648 13.15523272536992"
      },
      "geometry": {
        "type": "Point",
        "coordinates": [
          153.92925571052282,
          -42.899058669599405
        ]
      }
    },
    {
      "type": "Feature",
      "properties": {
        "norad_id": 40298,
        "name": "ASNARO",
        "group": "resource",
        "lat": -65.78622397187978,
        "lon": 92.48886011787937,
        "alt_km": 517.3116714603184,
        "timestamp": "2025-12-26T03:50:11.744896+00:00",
        "meta_object_name": "ASNARO",
        "meta_object_id": "2014-070A",
        "meta_epoch": "2025-12-25T20:13:46.335360",
        "meta_mean_motion": 15.19756142,
        "meta_eccentricity": 0.0005714,
        "meta_inclination": 97.3628,
        "meta_ra_of_asc_node": 75.4691,
        "meta_arg_of_pericenter": 86.7324,
        "meta_mean_anomaly": 273.4565,
        "meta_ephemeris_type": 0,
        "meta_classification_type": "U",
        "meta_norad_cat_id": 40298,
        "meta_element_set_no": 999,
        "meta_rev_at_epoch": 61768,
        "meta_bstar": 0.00035528,
        "meta_mean_motion_dot": 7.536e-05,
        "meta_mean_motion_ddot": 0,
        "tle_line1": "1 40298U 14070A   25359.84289740  .00007536  00000+0  35528-3 0  9997",
        "tle_line2": "2 40298  97.3628  75.4691 0005714  86.7324 273.4565 15.19756142617680"
      },
      "geometry": {
        "type": "Point",
        "coordinates": [
          92.48886011787937,
          -65.78622397187978
        ]
      }
    },
    {
      "type": "Feature",
      "properties": {
        "norad_id": 40310,
        "name": "YAOGAN-24",
        "group": "resource",
        "lat": -29.074077229043993,
        "lon": 135.8803791971303,
        "alt_km": 653.6641290943562,
        "timestamp": "2025-12-26T03:50:11.744907+00:00",
        "meta_object_name": "YAOGAN-24",
        "meta_object_id": "2014-072A",
        "meta_epoch": "2025-12-25T21:27:45.176832",
        "meta_mean_motion": 14.76204827,
        "meta_eccentricity": 0.0015217,
        "meta_inclination": 98.1233,
        "meta_ra_of_asc_node": 131.0585,
        "meta_arg_of_pericenter": 98.6405,
        "meta_mean_anomaly": 261.6529,
        "meta_ephemeris_type": 0,
        "meta_classification_type": "U",
        "meta_norad_cat_id": 40310,
        "meta_element_set_no": 999,
        "meta_rev_at_epoch": 59815,
        "meta_bstar": 0.00019962,
        "meta_mean_motion_dot": 1.331e-05,
        "meta_mean_motion_ddot": 0,
        "tle_line1": "1 40310U 14072A   25359.89427288  .00001331  00000+0  19962-3 0  9991",
        "tle_line2": "2 40310  98.1233 131.0585 0015217  98.6405 261.6529 14.76204827598157"
      },
      "geometry": {
        "type": "Point",
        "coordinates": [
          135.8803791971303,
          -29.074077229043993
        ]
      }
    },
    {
      "type": "Feature",
      "properties": {
        "norad_id": 40336,
        "name": "CBERS 4",
        "group": "resource",
        "lat": -81.64560524056576,
        "lon": 151.7578816100815,
        "alt_km": 782.001584100165,
        "timestamp": "2025-12-26T03:50:11.744917+00:00",
        "meta_object_name": "CBERS 4",
        "meta_object_id": "2014-079A",
        "meta_epoch": "2025-12-25T19:53:38.546304",
        "meta_mean_motion": 14.35522621,
        "meta_eccentricity": 0.0001872,
        "meta_inclination": 98.3286,
        "meta_ra_of_asc_node": 57.3965,
        "meta_arg_of_pericenter": 97.6939,
        "meta_mean_anomaly": 262.446,
        "meta_ephemeris_type": 0,
        "meta_classification_type": "U",
        "meta_norad_cat_id": 40336,
        "meta_element_set_no": 999,
        "meta_rev_at_epoch": 57908,
        "meta_bstar": 6.5566e-05,
        "meta_mean_motion_dot": 1.47e-06,
        "meta_mean_motion_ddot": 0,
        "tle_line1": "1 40336U 14079A   25359.82891836  .00000147  00000+0  65566-4 0  9999",
        "tle_line2": "2 40336  98.3286  57.3965 0001872  97.6939 262.4460 14.35522621579084"
      },
      "geometry": {
        "type": "Point",
        "coordinates": [
          151.7578816100815,
          -81.64560524056576
        ]
      }
    },
    {
      "type": "Feature",
      "properties": {
        "norad_id": 40362,
        "name": "YAOGAN-26",
        "group": "resource",
        "lat": -19.73438395370001,
        "lon": 177.8085250161803,
        "alt_km": 454.5061640399572,
        "timestamp": "2025-12-26T03:50:11.744928+00:00",
        "meta_object_name": "YAOGAN-26",
        "meta_object_id": "2014-088A",
        "meta_epoch": "2025-12-25T20:43:57.719136",
        "meta_mean_motion": 15.39764141,
        "meta_eccentricity": 0.0004262,
        "meta_inclination": 97.0647,
        "meta_ra_of_asc_node": 0.0727,
        "meta_arg_of_pericenter": 348.5494,
        "meta_mean_anomaly": 11.5655,
        "meta_ephemeris_type": 0,
        "meta_classification_type": "U",
        "meta_norad_cat_id": 40362,
        "meta_element_set_no": 999,
        "meta_rev_at_epoch": 61096,
        "meta_bstar": 0.00065428,
        "meta_mean_motion_dot": 0.00025885,
        "meta_mean_motion_ddot": 0,
        "tle_line1": "1 40362U 14088A   25359.86386249  .00025885  00000+0  65428-3 0  9991",
        "tle_line2": "2 40362  97.0647   0.0727 0004262 348.5494  11.5655 15.39764141610963"
      },
      "geometry": {
        "type": "Point",
        "coordinates": [
          177.8085250161803,
          -19.73438395370001
        ]
      }
    }
  ]
}